CCSDS_OMM_VERS = 2.0
CREATION_DATE  = 
ORIGINATOR     = 

OBJECT_NAME    = STARLINK-36826
OBJECT_ID      = 2026-035G
CENTER_NAME    = EARTH
REF_FRAME      = TEME
TIME_SYSTEM    = UTC
MEAN_ELEMENT_THEORY = SGP/SGP4

EPOCH          = 2026-03-13T14:00:01.000224
MEAN_MOTION    = 15.80811566
ECCENTRICITY   = .00009872
INCLINATION    = 97.2841
RA_OF_ASC_NODE = 5.1530
ARG_OF_PERICENTER = 112.6031
MEAN_ANOMALY   = 314.0695

EPHEMERIS_TYPE = 0
CLASSIFICATION_TYPE = U
NORAD_CAT_ID   = 67885
ELEMENT_SET_NO = 999
REV_AT_EPOCH   = 438
BSTAR          = -.22259664E-3
MEAN_MOTION_DOT = -.42562E-3
MEAN_MOTION_DDOT = 0

CCSDS_OMM_VERS = 2.0
CREATION_DATE  = 
ORIGINATOR     = 

OBJECT_NAME    = STARLINK-36390
OBJECT_ID      = 2026-035H
CENTER_NAME    = EARTH
REF_FRAME      = TEME
TIME_SYSTEM    = UTC
MEAN_ELEMENT_THEORY = SGP/SGP4

EPOCH          = 2026-03-13T14:00:01.000224
MEAN_MOTION    = 15.80823541
ECCENTRICITY   = .00012131
INCLINATION    = 97.2839
RA_OF_ASC_NODE = 5.1543
ARG_OF_PERICENTER = 68.9464
MEAN_ANOMALY   = 1.9953

EPHEMERIS_TYPE = 0
CLASSIFICATION_TYPE = U
NORAD_CAT_ID   = 67886
ELEMENT_SET_NO = 999
REV_AT_EPOCH   = 443
BSTAR          = -.18680168E-3
MEAN_MOTION_DOT = -.35789E-3
MEAN_MOTION_DDOT = 0

CCSDS_OMM_VERS = 2.0
CREATION_DATE  = 
ORIGINATOR     = 

OBJECT_NAME    = STARLINK-36368
OBJECT_ID      = 2026-035J
CENTER_NAME    = EARTH
REF_FRAME      = TEME
TIME_SYSTEM    = UTC
MEAN_ELEMENT_THEORY = SGP/SGP4

EPOCH          = 2026-03-13T14:00:01.000224
MEAN_MOTION    = 15.80898501
ECCENTRICITY   = .00013275
INCLINATION    = 97.2835
RA_OF_ASC_NODE = 5.1557
ARG_OF_PERICENTER = 93.2572
MEAN_ANOMALY   = 342.0151

EPHEMERIS_TYPE = 0
CLASSIFICATION_TYPE = U
NORAD_CAT_ID   = 67887
ELEMENT_SET_NO = 999
REV_AT_EPOCH   = 438
BSTAR          = -.99637402E-3
MEAN_MOTION_DOT = -.187662E-2
MEAN_MOTION_DDOT = 0

CCSDS_OMM_VERS = 2.0
CREATION_DATE  = 
ORIGINATOR     = 

OBJECT_NAME    = STARLINK-36801
OBJECT_ID      = 2026-035K
CENTER_NAME    = EARTH
REF_FRAME      = TEME
TIME_SYSTEM    = UTC
MEAN_ELEMENT_THEORY = SGP/SGP4

EPOCH          = 2026-03-13T14:00:01.000224
MEAN_MOTION    = 15.80823707
ECCENTRICITY   = .00012629
INCLINATION    = 97.2833
RA_OF_ASC_NODE = 5.1570
ARG_OF_PERICENTER = 98.1308
MEAN_ANOMALY   = 341.3603

EPHEMERIS_TYPE = 0
CLASSIFICATION_TYPE = U
NORAD_CAT_ID   = 67888
ELEMENT_SET_NO = 999
REV_AT_EPOCH   = 438
BSTAR          = -.13704906E-3
MEAN_MOTION_DOT = -.26323E-3
MEAN_MOTION_DDOT = 0

CCSDS_OMM_VERS = 2.0
CREATION_DATE  = 
ORIGINATOR     = 

OBJECT_NAME    = STARLINK-36372
OBJECT_ID      = 2026-035L
CENTER_NAME    = EARTH
REF_FRAME      = TEME
TIME_SYSTEM    = UTC
MEAN_ELEMENT_THEORY = SGP/SGP4

EPOCH          = 2026-03-13T14:00:01.000224
MEAN_MOTION    = 15.80758551
ECCENTRICITY   = .00015691
INCLINATION    = 97.2826
RA_OF_ASC_NODE = 5.1595
ARG_OF_PERICENTER = 96.2043
MEAN_ANOMALY   = 351.8485

EPHEMERIS_TYPE = 0
CLASSIFICATION_TYPE = U
NORAD_CAT_ID   = 67889
ELEMENT_SET_NO = 999
REV_AT_EPOCH   = 438
BSTAR          = .44060503E-3
MEAN_MOTION_DOT = .84858E-3
MEAN_MOTION_DDOT = 0

CCSDS_OMM_VERS = 2.0
CREATION_DATE  = 
ORIGINATOR     = 

OBJECT_NAME    = STARLINK-36363
OBJECT_ID      = 2026-035M
CENTER_NAME    = EARTH
REF_FRAME      = TEME
TIME_SYSTEM    = UTC
MEAN_ELEMENT_THEORY = SGP/SGP4

EPOCH          = 2026-03-13T14:00:01.000224
MEAN_MOTION    = 15.80809161
ECCENTRICITY   = .0001267
INCLINATION    = 97.2835
RA_OF_ASC_NODE = 5.1594
ARG_OF_PERICENTER = 95.5803
MEAN_ANOMALY   = 348.1810

EPHEMERIS_TYPE = 0
CLASSIFICATION_TYPE = U
NORAD_CAT_ID   = 67890
ELEMENT_SET_NO = 999
REV_AT_EPOCH   = 438
BSTAR          = .10501686E-3
MEAN_MOTION_DOT = .20013E-3
MEAN_MOTION_DDOT = 0

CCSDS_OMM_VERS = 2.0
CREATION_DATE  = 
ORIGINATOR     = 

OBJECT_NAME    = STARLINK-36816
OBJECT_ID      = 2026-035N
CENTER_NAME    = EARTH
REF_FRAME      = TEME
TIME_SYSTEM    = UTC
MEAN_ELEMENT_THEORY = SGP/SGP4

EPOCH          = 2026-03-13T14:00:01.000224
MEAN_MOTION    = 15.80824793
ECCENTRICITY   = .00013629
INCLINATION    = 97.2844
RA_OF_ASC_NODE = 5.1804
ARG_OF_PERICENTER = 94.7043
MEAN_ANOMALY   = 48.9006

EPHEMERIS_TYPE = 0
CLASSIFICATION_TYPE = U
NORAD_CAT_ID   = 67891
ELEMENT_SET_NO = 999
REV_AT_EPOCH   = 427
BSTAR          = -.1365961E-3
MEAN_MOTION_DOT = -.26239E-3
MEAN_MOTION_DDOT = 0

CCSDS_OMM_VERS = 2.0
CREATION_DATE  = 
ORIGINATOR     = 

OBJECT_NAME    = STARLINK-36813
OBJECT_ID      = 2026-035P
CENTER_NAME    = EARTH
REF_FRAME      = TEME
TIME_SYSTEM    = UTC
MEAN_ELEMENT_THEORY = SGP/SGP4

EPOCH          = 2026-03-13T14:00:01.000224
MEAN_MOTION    = 15.80792115
ECCENTRICITY   = .00012948
INCLINATION    = 97.2808
RA_OF_ASC_NODE = 5.1681
ARG_OF_PERICENTER = 97.0358
MEAN_ANOMALY   = 20.9226

EPHEMERIS_TYPE = 0
CLASSIFICATION_TYPE = U
NORAD_CAT_ID   = 67892
ELEMENT_SET_NO = 999
REV_AT_EPOCH   = 438
BSTAR          = .33368276E-3
MEAN_MOTION_DOT = .64175E-3
MEAN_MOTION_DDOT = 0

CCSDS_OMM_VERS = 2.0
CREATION_DATE  = 
ORIGINATOR     = 

OBJECT_NAME    = STARLINK-36803
OBJECT_ID      = 2026-035Q
CENTER_NAME    = EARTH
REF_FRAME      = TEME
TIME_SYSTEM    = UTC
MEAN_ELEMENT_THEORY = SGP/SGP4

EPOCH          = 2026-03-13T14:00:01.000224
MEAN_MOTION    = 15.80864823
ECCENTRICITY   = .00013031
INCLINATION    = 97.2827
RA_OF_ASC_NODE = 5.1615
ARG_OF_PERICENTER = 75.6300
MEAN_ANOMALY   = 16.6891

EPHEMERIS_TYPE = 0
CLASSIFICATION_TYPE = U
NORAD_CAT_ID   = 67893
ELEMENT_SET_NO = 999
REV_AT_EPOCH   = 438
BSTAR          = -.59614323E-3
MEAN_MOTION_DOT = -.113117E-2
MEAN_MOTION_DDOT = 0

CCSDS_OMM_VERS = 2.0
CREATION_DATE  = 
ORIGINATOR     = 

OBJECT_NAME    = STARLINK-36846
OBJECT_ID      = 2026-035R
CENTER_NAME    = EARTH
REF_FRAME      = TEME
TIME_SYSTEM    = UTC
MEAN_ELEMENT_THEORY = SGP/SGP4

EPOCH          = 2026-03-13T14:00:01.000224
MEAN_MOTION    = 15.79688340
ECCENTRICITY   = .00018274
INCLINATION    = 97.2815
RA_OF_ASC_NODE = 5.1644
ARG_OF_PERICENTER = 92.9367
MEAN_ANOMALY   = 7.3677

EPHEMERIS_TYPE = 0
CLASSIFICATION_TYPE = U
NORAD_CAT_ID   = 67894
ELEMENT_SET_NO = 999
REV_AT_EPOCH   = 438
BSTAR          = -.12176132E-1
MEAN_MOTION_DOT = -.1931202E-1
MEAN_MOTION_DDOT = 0

CCSDS_OMM_VERS = 2.0
CREATION_DATE  = 
ORIGINATOR     = 

OBJECT_NAME    = STARLINK-36866
OBJECT_ID      = 2026-035S
CENTER_NAME    = EARTH
REF_FRAME      = TEME
TIME_SYSTEM    = UTC
MEAN_ELEMENT_THEORY = SGP/SGP4

EPOCH          = 2026-03-13T14:00:01.000224
MEAN_MOTION    = 15.80807784
ECCENTRICITY   = .00013646
INCLINATION    = 97.2824
RA_OF_ASC_NODE = 5.1663
ARG_OF_PERICENTER = 87.8511
MEAN_ANOMALY   = 17.2837

EPHEMERIS_TYPE = 0
CLASSIFICATION_TYPE = U
NORAD_CAT_ID   = 67895
ELEMENT_SET_NO = 999
REV_AT_EPOCH   = 438
BSTAR          = .28343045E-4
MEAN_MOTION_DOT = .5288E-4
MEAN_MOTION_DDOT = 0

CCSDS_OMM_VERS = 2.0
CREATION_DATE  = 
ORIGINATOR     = 

OBJECT_NAME    = STARLINK-36877
OBJECT_ID      = 2026-035T
CENTER_NAME    = EARTH
REF_FRAME      = TEME
TIME_SYSTEM    = UTC
MEAN_ELEMENT_THEORY = SGP/SGP4

EPOCH          = 2026-03-13T14:00:01.000224
MEAN_MOTION    = 15.80818321
ECCENTRICITY   = .00016254
INCLINATION    = 97.2824
RA_OF_ASC_NODE = 5.1622
ARG_OF_PERICENTER = 76.7250
MEAN_ANOMALY   = 19.8666

EPHEMERIS_TYPE = 0
CLASSIFICATION_TYPE = U
NORAD_CAT_ID   = 67896
ELEMENT_SET_NO = 999
REV_AT_EPOCH   = 438
BSTAR          = -.23556947E-3
MEAN_MOTION_DOT = -.45039E-3
MEAN_MOTION_DDOT = 0

