STARLINK-36826          
1 67885U 26035G   26072.58334491 -.00042562  00000+0 -22260-3 0  9999
2 67885  97.2841   5.1530 0000987 112.6031 314.0695 15.80811566  4383
STARLINK-36390          
1 67886U 26035H   26072.58334491 -.00035789  00000+0 -18680-3 0  9994
2 67886  97.2839   5.1543 0001213  68.9464   1.9953 15.80823541  4432
STARLINK-36368          
1 67887U 26035J   26072.58334491 -.00187662  00000+0 -99637-3 0  9994
2 67887  97.2835   5.1557 0001327  93.2572 342.0151 15.80898501  4382
STARLINK-36801          
1 67888U 26035K   26072.58334491 -.00026323  00000+0 -13705-3 0  9993
2 67888  97.2833   5.1570 0001262  98.1308 341.3603 15.80823707  4385
STARLINK-36372          
1 67889U 26035L   26072.58334491  .00084858  00000+0  44061-3 0  9998
2 67889  97.2826   5.1595 0001569  96.2043 351.8485 15.80758551  4388
STARLINK-36363          
1 67890U 26035M   26072.58334491  .00020013  00000+0  10502-3 0  9996
2 67890  97.2835   5.1594 0001267  95.5803 348.1810 15.80809161  4385
STARLINK-36816          
1 67891U 26035N   26072.58334491 -.00026239  00000+0 -13660-3 0  9993
2 67891  97.2844   5.1804 0001362  94.7043  48.9006 15.80824793  4271
STARLINK-36813          
1 67892U 26035P   26072.58334491  .00064175  00000+0  33368-3 0  9990
2 67892  97.2808   5.1681 0001294  97.0358  20.9226 15.80792115  4382
STARLINK-36803          
1 67893U 26035Q   26072.58334491 -.00113117  00000+0 -59614-3 0  9996
2 67893  97.2827   5.1615 0001303  75.6300  16.6891 15.80864823  4387
STARLINK-36846          
1 67894U 26035R   26072.58334491 -.01931202  00000+0 -12176-1 0  9991
2 67894  97.2815   5.1644 0001827  92.9367   7.3677 15.79688340  4388
STARLINK-36866          
1 67895U 26035S   26072.58334491  .00005288  00000+0  28343-4 0  9991
2 67895  97.2824   5.1663 0001364  87.8511  17.2837 15.80807784  4385
STARLINK-36877          
1 67896U 26035T   26072.58334491 -.00045039  00000+0 -23557-3 0  9993
2 67896  97.2824   5.1622 0001625  76.7250  19.8666 15.80818321  4385
